start=new Date('2022-04-13T00:00:00.000Z').valueOf();
sats=[{"MEAN_MOTION_DDOT":"0.0000000000000","SEMIMAJOR_AXIS":"6925.380","REV_AT_EPOCH":"6143","APOAPSIS":"548.643","SITE":"AFETR","MEAN_ELEMENT_THEORY":"SGP4","EPHEMERIS_TYPE":"0","CLASSIFICATION_TYPE":"U","ECCENTRICITY":"0.00020180","CENTER_NAME":"EARTH","TIME_SYSTEM":"UTC","DECAY_DATE":null,"TLE_LINE1":"1 47835U 21018BA  22102.68985771 -.00000232  00000-0  33346-5 0  9999","OBJECT_ID":"2021-018BA","PERIAPSIS":"545.848","FILE":"3398892","PERIOD":"95.593","OBJECT_TYPE":"PAYLOAD","REF_FRAME":"TEME","NORAD_CAT_ID":"47835","ELEMENT_SET_NO":"999","RA_OF_ASC_NODE":"182.6655","MEAN_MOTION_DOT":"-0.00000232","BSTAR":"0.00000333460000","MEAN_ANOMALY":"309.5358","INCLINATION":"53.0529","COUNTRY_CODE":"US","TLE_LINE2":"2 47835  53.0529 182.6655 0002018  50.5809 309.5358 15.06389698 61436","OBJECT_NAME":"STARLINK-2425","LAUNCH_DATE":"2021-03-11","GP_ID":"201092343","RCS_SIZE":"LARGE","MEAN_MOTION":"15.06389698","ARG_OF_PERICENTER":"50.5809","EPOCH":"2022-04-12T16:33:23.706144"},{"ARG_OF_PERICENTER":"50.4904","MEAN_MOTION":"15.06386404","EPOCH":"2022-04-12T14:50:33.959040","LAUNCH_DATE":"2021-03-11","OBJECT_NAME":"STARLINK-2426","TLE_LINE2":"2 47836  53.0549 177.9995 0001810  50.4904 309.6244 15.06386404 61502","RCS_SIZE":"LARGE","GP_ID":"201093595","INCLINATION":"53.0549","MEAN_ANOMALY":"309.6244","BSTAR":"-0.00015210000000","COUNTRY_CODE":"US","NORAD_CAT_ID":"47836","ELEMENT_SET_NO":"999","REF_FRAME":"TEME","MEAN_MOTION_DOT":"-0.00002546","RA_OF_ASC_NODE":"177.9995","FILE":"3398892","OBJECT_TYPE":"PAYLOAD","PERIOD":"95.593","DECAY_DATE":null,"TLE_LINE1":"1 47836U 21018BB  22102.61844860 -.00002546  00000-0 -15210-3 0  9995","OBJECT_ID":"2021-018BB","PERIAPSIS":"546.002","CLASSIFICATION_TYPE":"U","TIME_SYSTEM":"UTC","CENTER_NAME":"EARTH","ECCENTRICITY":"0.00018100","MEAN_MOTION_DDOT":"0.0000000000000","MEAN_ELEMENT_THEORY":"SGP4","SITE":"AFETR","EPHEMERIS_TYPE":"0","APOAPSIS":"548.509","SEMIMAJOR_AXIS":"6925.390","REV_AT_EPOCH":"6150"},{"TLE_LINE1":"1 47837U 21018BC  22102.43693460 -.00003620  00000-0 -22438-3 0  9998","OBJECT_ID":"2021-018BC","DECAY_DATE":null,"PERIAPSIS":"545.943","FILE":"3398537","PERIOD":"95.594","OBJECT_TYPE":"PAYLOAD","MEAN_MOTION_DDOT":"0.0000000000000","REV_AT_EPOCH":"6176","SEMIMAJOR_AXIS":"6925.423","APOAPSIS":"548.633","SITE":"AFETR","EPHEMERIS_TYPE":"0","MEAN_ELEMENT_THEORY":"SGP4","CLASSIFICATION_TYPE":"U","ECCENTRICITY":"0.00019420","CENTER_NAME":"EARTH","TIME_SYSTEM":"UTC","TLE_LINE2":"2 47837  53.0523 158.8134 0001942  38.1646 321.9480 15.06375658 61766","OBJECT_NAME":"STARLINK-2427","LAUNCH_DATE":"2021-03-11","GP_ID":"201058665","RCS_SIZE":"LARGE","MEAN_MOTION":"15.06375658","ARG_OF_PERICENTER":"38.1646","EPOCH":"2022-04-12T10:29:11.149440","REF_FRAME":"TEME","ELEMENT_SET_NO":"999","NORAD_CAT_ID":"47837","RA_OF_ASC_NODE":"158.8134","MEAN_MOTION_DOT":"-0.00003620","BSTAR":"-0.00022438000000","MEAN_ANOMALY":"321.9480","INCLINATION":"53.0523","COUNTRY_CODE":"US"},{"MEAN_MOTION_DDOT":"0.0000000000000","SITE":"AFETR","EPHEMERIS_TYPE":"0","MEAN_ELEMENT_THEORY":"SGP4","APOAPSIS":"548.769","SEMIMAJOR_AXIS":"6925.340","REV_AT_EPOCH":"6151","CLASSIFICATION_TYPE":"U","TIME_SYSTEM":"UTC","CENTER_NAME":"EARTH","ECCENTRICITY":"0.00022580","DECAY_DATE":null,"TLE_LINE1":"1 47838U 21018BD  22102.71520363  .00000582  00000-0  57962-4 0  9994","OBJECT_ID":"2021-018BD","PERIAPSIS":"545.641","FILE":"3398892","OBJECT_TYPE":"PAYLOAD","PERIOD":"95.592","NORAD_CAT_ID":"47838","ELEMENT_SET_NO":"999","REF_FRAME":"TEME","MEAN_MOTION_DOT":"0.00000582","RA_OF_ASC_NODE":"177.5587","INCLINATION":"53.0546","MEAN_ANOMALY":"311.3556","BSTAR":"0.00005796200000","COUNTRY_CODE":"US","LAUNCH_DATE":"2021-03-11","OBJECT_NAME":"STARLINK-2429","TLE_LINE2":"2 47838  53.0546 177.5587 0002258  48.7627 311.3556 15.06402718 61517","RCS_SIZE":"LARGE","GP_ID":"201092093","ARG_OF_PERICENTER":"48.7627","MEAN_MOTION":"15.06402718","EPOCH":"2022-04-12T17:09:53.593632"},{"CENTER_NAME":"EARTH","ECCENTRICITY":"0.00015650","TIME_SYSTEM":"UTC","CLASSIFICATION_TYPE":"U","APOAPSIS":"548.355","REV_AT_EPOCH":"6196","SEMIMAJOR_AXIS":"6925.406","SITE":"AFETR","EPHEMERIS_TYPE":"0","MEAN_ELEMENT_THEORY":"SGP4","MEAN_MOTION_DDOT":"0.0000000000000","PERIOD":"95.593","OBJECT_TYPE":"PAYLOAD","FILE":"3398892","TLE_LINE1":"1 47839U 21018BE  22102.81013616 -.00002365  00000-0 -14001-3 0  9993","DECAY_DATE":null,"PERIAPSIS":"546.187","OBJECT_ID":"2021-018BE","COUNTRY_CODE":"US","BSTAR":"-0.00014001000000","INCLINATION":"53.0530","MEAN_ANOMALY":"300.9446","RA_OF_ASC_NODE":"147.1185","MEAN_MOTION_DOT":"-0.00002365","REF_FRAME":"TEME","ELEMENT_SET_NO":"999","NORAD_CAT_ID":"47839","EPOCH":"2022-04-12T19:26:35.764224","MEAN_MOTION":"15.06381288","ARG_OF_PERICENTER":"59.1697","GP_ID":"201092844","RCS_SIZE":"LARGE","TLE_LINE2":"2 47839  53.0530 147.1185 0001565  59.1697 300.9446 15.06381288 61960","OBJECT_NAME":"STARLINK-2431","LAUNCH_DATE":"2021-03-11"},{"NORAD_CAT_ID":"47840","ELEMENT_SET_NO":"999","REF_FRAME":"TEME","MEAN_MOTION_DOT":"0.00002718","RA_OF_ASC_NODE":"156.7876","MEAN_ANOMALY":"310.5353","INCLINATION":"53.0547","BSTAR":"0.00020136000000","COUNTRY_CODE":"US","LAUNCH_DATE":"2021-03-11","OBJECT_NAME":"STARLINK-2432","TLE_LINE2":"2 47840  53.0547 156.7876 0001832  49.5795 310.5353 15.06390888 61827","RCS_SIZE":"LARGE","GP_ID":"201093095","ARG_OF_PERICENTER":"49.5795","MEAN_MOTION":"15.06390888","EPOCH":"2022-04-12T21:16:43.885920","MEAN_MOTION_DDOT":"0.0000000000000","SITE":"AFETR","EPHEMERIS_TYPE":"0","MEAN_ELEMENT_THEORY":"SGP4","SEMIMAJOR_AXIS":"6925.376","REV_AT_EPOCH":"6182","APOAPSIS":"548.510","CLASSIFICATION_TYPE":"U","TIME_SYSTEM":"UTC","ECCENTRICITY":"0.00018320","CENTER_NAME":"EARTH","DECAY_DATE":null,"TLE_LINE1":"1 47840U 21018BF  22102.88661905  .00002718  00000-0  20136-3 0  9998","OBJECT_ID":"2021-018BF","PERIAPSIS":"545.973","FILE":"3398892","OBJECT_TYPE":"PAYLOAD","PERIOD":"95.593"},{"CLASSIFICATION_TYPE":"U","ECCENTRICITY":"0.00014800","CENTER_NAME":"EARTH","TIME_SYSTEM":"UTC","MEAN_MOTION_DDOT":"0.0000000000000","SEMIMAJOR_AXIS":"6925.372","REV_AT_EPOCH":"6182","APOAPSIS":"548.262","SITE":"AFETR","MEAN_ELEMENT_THEORY":"SGP4","EPHEMERIS_TYPE":"0","FILE":"3398892","PERIOD":"95.593","OBJECT_TYPE":"PAYLOAD","TLE_LINE1":"1 47841U 21018BG  22102.88293621  .00002083  00000-0  15872-3 0  9991","PERIAPSIS":"546.213","DECAY_DATE":null,"OBJECT_ID":"2021-018BG","BSTAR":"0.00015872000000","MEAN_ANOMALY":"290.4700","INCLINATION":"53.0543","COUNTRY_CODE":"US","REF_FRAME":"TEME","ELEMENT_SET_NO":"999","NORAD_CAT_ID":"47841","RA_OF_ASC_NODE":"156.8021","MEAN_MOTION_DOT":"0.00002083","MEAN_MOTION":"15.06392201","ARG_OF_PERICENTER":"69.6448","EPOCH":"2022-04-12T21:11:25.688544","TLE_LINE2":"2 47841  53.0543 156.8021 0001480  69.6448 290.4700 15.06392201 61827","LAUNCH_DATE":"2021-03-11","OBJECT_NAME":"STARLINK-2433","GP_ID":"201093846","RCS_SIZE":"LARGE"},{"ARG_OF_PERICENTER":"47.4317","MEAN_MOTION":"15.06362270","EPOCH":"2022-04-12T16:04:53.717088","OBJECT_NAME":"STARLINK-2434","LAUNCH_DATE":"2021-03-11","TLE_LINE2":"2 47842  53.0543 187.7605 0001831  47.4317 312.6826 15.06362270 61423","RCS_SIZE":"LARGE","GP_ID":"201092594","MEAN_ANOMALY":"312.6826","INCLINATION":"53.0543","BSTAR":"0.00005743600000","COUNTRY_CODE":"US","NORAD_CAT_ID":"47842","ELEMENT_SET_NO":"999","REF_FRAME":"TEME","MEAN_MOTION_DOT":"0.00000573","RA_OF_ASC_NODE":"187.7605","FILE":"3398892","OBJECT_TYPE":"PAYLOAD","PERIOD":"95.595","DECAY_DATE":null,"TLE_LINE1":"1 47842U 21018BH  22102.67006617  .00000573  00000-0  57436-4 0  9991","OBJECT_ID":"2021-018BH","PERIAPSIS":"546.061","CLASSIFICATION_TYPE":"U","TIME_SYSTEM":"UTC","ECCENTRICITY":"0.00018310","CENTER_NAME":"EARTH","MEAN_MOTION_DDOT":"0.0000000000000","MEAN_ELEMENT_THEORY":"SGP4","SITE":"AFETR","EPHEMERIS_TYPE":"0","REV_AT_EPOCH":"6142","SEMIMAJOR_AXIS":"6925.464","APOAPSIS":"548.597"},{"REF_FRAME":"TEME","NORAD_CAT_ID":"47843","ELEMENT_SET_NO":"999","RA_OF_ASC_NODE":"182.5939","MEAN_MOTION_DOT":"-0.00002798","BSTAR":"-0.00016914000000","MEAN_ANOMALY":"316.5035","INCLINATION":"53.0540","COUNTRY_CODE":"US","TLE_LINE2":"2 47843  53.0540 182.5939 0001941  43.6107 316.5035 15.06375090 61464","LAUNCH_DATE":"2021-03-11","OBJECT_NAME":"STARLINK-2435","GP_ID":"201092344","RCS_SIZE":"LARGE","MEAN_MOTION":"15.06375090","ARG_OF_PERICENTER":"43.6107","EPOCH":"2022-04-12T17:01:18.780096","MEAN_MOTION_DDOT":"0.0000000000000","SEMIMAJOR_AXIS":"6925.425","REV_AT_EPOCH":"6146","APOAPSIS":"548.634","SITE":"AFETR","EPHEMERIS_TYPE":"0","MEAN_ELEMENT_THEORY":"SGP4","CLASSIFICATION_TYPE":"U","ECCENTRICITY":"0.00019410","CENTER_NAME":"EARTH","TIME_SYSTEM":"UTC","PERIAPSIS":"545.946","TLE_LINE1":"1 47843U 21018BJ  22102.70924514 -.00002798  00000-0 -16914-3 0  9999","DECAY_DATE":null,"OBJECT_ID":"2021-018BJ","FILE":"3398892","PERIOD":"95.594","OBJECT_TYPE":"PAYLOAD"},{"REF_FRAME":"TEME","ELEMENT_SET_NO":"999","NORAD_CAT_ID":"47844","RA_OF_ASC_NODE":"178.1934","MEAN_MOTION_DOT":"-0.00002728","BSTAR":"-0.00016442000000","MEAN_ANOMALY":"299.2525","INCLINATION":"53.0547","COUNTRY_CODE":"US","TLE_LINE2":"2 47844  53.0547 178.1934 0001680  60.8632 299.2525 15.06381608 61498","LAUNCH_DATE":"2021-03-11","OBJECT_NAME":"STARLINK-2446","GP_ID":"201093596","RCS_SIZE":"LARGE","MEAN_MOTION":"15.06381608","ARG_OF_PERICENTER":"60.8632","EPOCH":"2022-04-12T13:48:13.291776","MEAN_MOTION_DDOT":"0.0000000000000","REV_AT_EPOCH":"6149","SEMIMAJOR_AXIS":"6925.405","APOAPSIS":"548.433","MEAN_ELEMENT_THEORY":"SGP4","SITE":"AFETR","EPHEMERIS_TYPE":"0","CLASSIFICATION_TYPE":"U","ECCENTRICITY":"0.00016800","CENTER_NAME":"EARTH","TIME_SYSTEM":"UTC","DECAY_DATE":null,"TLE_LINE1":"1 47844U 21018BK  22102.57515384 -.00002728  00000-0 -16442-3 0  9995","PERIAPSIS":"546.106","OBJECT_ID":"2021-018BK","FILE":"3398892","PERIOD":"95.593","OBJECT_TYPE":"PAYLOAD"}];
